OBJECT_NAME,OBJECT_ID,EPOCH,MEAN_MOTION,ECCENTRICITY,INCLINATION,RA_OF_ASC_NODE,ARG_OF_PERICENTER,MEAN_ANOMALY,EPHEMERIS_TYPE,CLASSIFICATION_TYPE,NORAD_CAT_ID,ELEMENT_SET_NO,REV_AT_EPOCH,BSTAR,MEAN_MOTION_DOT,MEAN_MOTION_DDOT
H-2A R/B,2006-002B,2026-07-01T00:39:54.560448,15.18250041,.00499821,98.2578,339.1109,214.3327,145.4671,0,U,28932,999,11162,.45171276E-3,.9479E-4,0
RESURS-DK 1,2006-021A,2026-07-01T12:16:52.331520,15.13275435,.00066857,69.9341,302.4724,284.9688,75.0738,0,U,29228,999,10474,.13466925E-3,.2294E-4,0
CZ-4B R/B,2006-046C,2026-07-01T08:39:41.665824,15.17887150,.00313453,97.5438,226.9242,231.0669,128.7770,0,U,29507,999,7728,.23420906E-3,.4736E-4,0
CZ-2C R/B,2007-010B,2026-07-01T06:58:19.097184,14.20279260,.00582225,98.4112,289.9525,324.8807,34.8538,0,U,31114,999,99584,.62976798E-4,.95E-6,0
COSMO-SKYMED 1,2007-023A,2026-07-01T15:19:11.470080,14.97173269,.00014414,97.8854,14.6161,84.1145,276.0240,0,U,31598,999,3195,.17917286E-3,.2011E-4,0
COSMOS 2428,2007-029A,2026-07-01T12:21:59.335776,14.12928616,.00071268,70.9377,324.3928,107.6431,252.5469,0,U,31792,999,98017,.53211349E-4,.51E-6,0
SL-16 R/B,2007-029B,2026-07-01T11:07:06.024288,14.14853200,.00024318,70.9767,293.2187,261.7664,168.4174,0,U,31793,999,98146,-.10797126E-3,-.256E-5,0
KORONAS-FOTON,2009-003A,2026-07-01T07:39:52.081920,15.46015018,.00126257,82.4291,157.5137,104.2223,256.0429,0,U,33504,999,96328,.28059131E-3,.13775E-3,0
CZ-2C R/B,2011-030B,2026-07-01T12:07:05.182176,14.81506439,.0051808,97.8661,137.6332,341.5708,133.9163,0,U,37731,999,80694,.16850786E-3,.1296E-4,0
H-2A R/B,2012-025E,2026-07-01T11:20:47.868864,14.95784612,.00425294,98.4827,158.7964,301.2115,58.4939,0,U,38341,999,76522,.27232062E-3,.3022E-4,0
SHIJIAN-16 (SJ-16),2013-057A,2026-07-01T15:36:13.849056,14.92634157,.00163832,74.9734,329.2883,197.2009,162.8627,0,U,39358,999,68850,.1618579E-3,.1642E-4,0
SL-4 R/B,2014-021B,2026-07-01T07:41:54.395808,15.42229703,.00905297,51.6048,141.5163,157.5354,202.9635,0,U,39679,999,67379,.24423268E-3,.11929E-3,0
ALOS-2,2014-029A,2026-06-30T20:50:50.445024,14.79474729,.0001598,97.9232,278.8362,87.5110,272.6284,0,U,39766,999,65360,.10488E-3,.732E-5,0
YAOGAN-29,2015-069A,2026-07-01T14:46:56.220672,14.83095162,.00018174,98.0019,211.2710,30.2658,329.8660,0,U,41038,999,57276,.5314846E-5,-.11E-6,0
ASTRO-H (HITOMI),2016-012A,2026-07-01T15:18:23.226048,15.10577781,.00096035,31.0005,340.8585,38.0396,322.0919,0,U,41337,999,56947,.16958599E-3,.2966E-4,0
HXMT (HUIYAN),2017-034A,2026-07-01T06:37:53.766336,15.18579272,.0032623,43.0145,104.5830,236.0001,123.7747,0,U,42758,999,49980,.23468E-3,.4766E-4,0
SAOCOM 1A,2018-076A,2026-07-01T13:59:57.639264,14.82156908,.00015303,97.8878,9.1222,79.7560,280.3826,0,U,43641,999,41823,-.24369338E-4,-.246E-5,0
H-2A R/B,2018-084L,2026-07-01T05:50:26.591712,15.45701350,.00218505,98.8556,64.2092,351.7210,8.3671,0,U,43682,999,42329,.54760631E-3,.26622E-3,0
SAOCOM 1B,2020-059A,2026-07-01T14:44:53.506752,14.82150571,.00016027,97.8881,8.2485,82.4908,277.6487,0,U,46265,999,31562,.10116906E-3,.753E-5,0
CSS (TIANHE),2021-035A,2026-07-01T13:30:43.460064,15.61414266,.00088153,41.4674,234.4763,193.7745,166.2854,0,U,48274,999,29541,.23512607E-3,.20395E-3,0
COSMOS 2550,2021-056A,2026-07-01T15:07:59.361024,15.33866327,.00083668,67.1432,56.2160,268.9841,91.0355,0,U,48865,999,28093,.1849166E-3,.5904E-4,0
CZ-2C R/B,2022-058K,2026-07-01T04:26:37.565664,15.62841712,.003153,50.1858,90.6307,325.0964,34.7942,0,U,52794,999,22783,.51305E-3,.48199E-3,0
CZ-2C R/B,2022-132E,2026-07-01T11:19:30.918432,15.73281295,.0012768,97.2888,190.1506,37.4322,322.7829,0,U,54039,999,20819,.53639111E-3,.7459E-3,0
GSLV R/B,2022-138AN,2026-07-01T06:52:16.918752,14.97324976,.00241634,87.3817,128.2500,97.4465,262.9514,0,U,54149,999,20092,.24552899E-3,.2893E-4,0
XRISM,2023-137A,2026-07-01T13:50:52.034496,15.12588048,.00077424,31.0020,266.3850,109.0818,251.0660,0,U,57800,999,15504,.26913912E-3,.4915E-4,0
ACS3,2024-077B,2026-07-01T06:28:03.916128,13.94627727,.01059402,97.1701,97.9267,51.4379,309.6223,0,U,59588,999,11000,.21971682E-1,.30867E-3,0
CZ-8A R/B,2025-231K,2026-07-01T03:59:56.989248,14.30158717,.01164886,50.0054,339.8417,273.2183,85.5411,0,U,66004,999,3694,.56341966E-4,-.5E-7,0
SZ-21 MODULE,2025-246C,2026-07-01T09:37:53.800896,15.77622240,.00050833,41.4702,218.7196,112.0271,248.1115,0,U,66515,999,3598,.32796125E-3,.56541E-3,0
