H-2A R/B                
1 28932U 06002B   26182.02771482  .00009479  00000+0  45171-3 0  9991
2 28932  98.2578 339.1109 0049982 214.3327 145.4671 15.18250041111621
RESURS-DK 1             
1 29228U 06021A   26182.51171680  .00002294  00000+0  13467-3 0  9990
2 29228  69.9341 302.4724 0006685 284.9688  75.0738 15.13275435104741
CZ-4B R/B               
1 29507U 06046C   26182.36089891  .00004736  00000+0  23421-3 0  9996
2 29507  97.5438 226.9242 0031345 231.0669 128.7770 15.17887150 77280
CZ-2C R/B               
1 31114U 07010B   26182.29049881  .00000095  00000+0  62977-4 0  9996
2 31114  98.4112 289.9525 0058222 324.8807  34.8538 14.20279260995847
COSMO-SKYMED 1          
1 31598U 07023A   26182.63832720  .00002011  00000+0  17917-3 0  9999
2 31598  97.8854  14.6161 0001441  84.1145 276.0240 14.97173269 31959
COSMOS 2428             
1 31792U 07029A   26182.51527009  .00000051  00000+0  53211-4 0  9999
2 31792  70.9377 324.3928 0007126 107.6431 252.5469 14.12928616980174
SL-16 R/B               
1 31793U 07029B   26182.46326417 -.00000256  00000+0 -10797-3 0  9994
2 31793  70.9767 293.2187 0002431 261.7664 168.4174 14.14853200981462
KORONAS-FOTON           
1 33504U 09003A   26182.31935280  .00013775  00000+0  28059-3 0  9996
2 33504  82.4291 157.5137 0012625 104.2223 256.0429 15.46015018963289
CZ-2C R/B               
1 37731U 11030B   26182.50492109  .00001296  00000+0  16851-3 0  9996
2 37731  97.8661 137.6332 0051808 341.5708 133.9163 14.81506439806949
H-2A R/B                
1 38341U 12025E   26182.47277626  .00003022  00000+0  27232-3 0  9994
2 38341  98.4827 158.7964 0042529 301.2115  58.4939 14.95784612765221
SHIJIAN-16 (SJ-16)      
1 39358U 13057A   26182.65016029  .00001642  00000+0  16186-3 0  9999
2 39358  74.9734 329.2883 0016383 197.2009 162.8627 14.92634157688509
SL-4 R/B                
1 39679U 14021B   26182.32076847  .00011929  00000+0  24423-3 0  9997
2 39679  51.6048 141.5163 0090529 157.5354 202.9635 15.42229703673790
ALOS-2                  
1 39766U 14029A   26181.86863941  .00000732  00000+0  10488-3 0  9995
2 39766  97.9232 278.8362 0001598  87.5110 272.6284 14.79474729653601
YAOGAN-29               
1 41038U 15069A   26182.61592848 -.00000011  00000+0  53148-5 0  9997
2 41038  98.0019 211.2710 0001817  30.2658 329.8660 14.83095162572760
ASTRO-H (HITOMI)        
1 41337U 16012A   26182.63776882  .00002966  00000+0  16959-3 0  9999
2 41337  31.0005 340.8585 0009603  38.0396 322.0919 15.10577781569478
HXMT (HUIYAN)           
1 42758U 17034A   26182.27631674  .00004766  00000+0  23468-3 0  9994
2 42758  43.0145 104.5830 0032623 236.0001 123.7747 15.18579272499802
SAOCOM 1A               
1 43641U 18076A   26182.58330601 -.00000246  00000+0 -24369-4 0  9996
2 43641  97.8878   9.1222 0001530  79.7560 280.3826 14.82156908418237
H-2A R/B                
1 43682U 18084L   26182.24336333  .00026622  00000+0  54761-3 0  9993
2 43682  98.8556  64.2092 0021850 351.7210   8.3671 15.45701350423290
SAOCOM 1B               
1 46265U 20059A   26182.61450818  .00000753  00000+0  10117-3 0  9998
2 46265  97.8881   8.2485 0001602  82.4908 277.6487 14.82150571315625
CSS (TIANHE)            
1 48274U 21035A   26182.56300301  .00020395  00000+0  23513-3 0  9998
2 48274  41.4674 234.4763 0008815 193.7745 166.2854 15.61414266295419
COSMOS 2550             
1 48865U 21056A   26182.63054816  .00005904  00000+0  18492-3 0  9991
2 48865  67.1432  56.2160 0008366 268.9841  91.0355 15.33866327280936
CZ-2C R/B               
1 52794U 22058K   26182.18515701  .00048199  00000+0  51305-3 0  9998
2 52794  50.1858  90.6307 0031530 325.0964  34.7942 15.62841712227830
CZ-2C R/B               
1 54039U 22132E   26182.47188563  .00074590  00000+0  53639-3 0  9995
2 54039  97.2888 190.1506 0012768  37.4322 322.7829 15.73281295208198
GSLV R/B                
1 54149U 22138AN  26182.28630693  .00002893  00000+0  24553-3 0  9998
2 54149  87.3817 128.2500 0024163  97.4465 262.9514 14.97324976200922
XRISM                   
1 57800U 23137A   26182.57699114  .00004915  00000+0  26914-3 0  9990
2 57800  31.0020 266.3850 0007742 109.0818 251.0660 15.12588048155042
ACS3                    
1 59588U 24077B   26182.26948977  .00030867  00000+0  21972-1 0  9991
2 59588  97.1701  97.9267 0105940  51.4379 309.6223 13.94627727110005
CZ-8A R/B               
1 66004U 25231K   26182.16663182 -.00000005  00000+0  56342-4 0  9990
2 66004  50.0054 339.8417 0116488 273.2183  85.5411 14.30158717 36944
SZ-21 MODULE            
1 66515U 25246C   26182.40131714  .00056541  00000+0  32796-3 0  9992
2 66515  41.4702 218.7196 0005083 112.0271 248.1115 15.77622240 35980
